[{"OBJECT_NAME":"STARLINK-1578","OBJECT_ID":"2020-055BH","EPOCH":"2026-03-09T11:32:40.026912","MEAN_MOTION":15.06408841,"ECCENTRICITY":0.00013956,"INCLINATION":53.0557,"RA_OF_ASC_NODE":97.5557,"ARG_OF_PERICENTER":88.2015,"MEAN_ANOMALY":271.9133,"EPHEMERIS_TYPE":0,"CLASSIFICATION_TYPE":"U","NORAD_CAT_ID":46082,"ELEMENT_SET_NO":999,"REV_AT_EPOCH":30927,"BSTAR":0.00010339961,"MEAN_MOTION_DOT":1.259e-5,"MEAN_MOTION_DDOT":0},{"OBJECT_NAME":"COSMOS 2251 DEB","OBJECT_ID":"1993-036BYJ","EPOCH":"2026-02-27T08:25:05.077344","MEAN_MOTION":15.02778291,"ECCENTRICITY":0.0017194,"INCLINATION":74.0208,"RA_OF_ASC_NODE":84.7822,"ARG_OF_PERICENTER":181.9976,"MEAN_ANOMALY":194.0424,"EPHEMERIS_TYPE":0,"CLASSIFICATION_TYPE":"U","NORAD_CAT_ID":47116,"ELEMENT_SET_NO":999,"REV_AT_EPOCH":60660,"BSTAR":0.0017596726,"MEAN_MOTION_DOT":0.00023658,"MEAN_MOTION_DDOT":0}]
